$$SOE
2459580.500000000, A.D. 2022-Jan-01 00:00:00.0000, -1.738712993988949E+08, 3.242036179410006E+08, 1.612750978286144E+08,
2459587.500000000, A.D. 2022-Jan-08 00:00:00.0000, -1.821231668989959E+08, 3.183835293504767E+08, 1.610412927053268E+08,
2459594.500000000, A.D. 2022-Jan-15 00:00:00.0000, -1.902375389858566E+08, 3.123230105970513E+08, 1.606858713735034E+08,
2459601.500000000, A.D. 2022-Jan-22 00:00:00.0000, -1.982070457501529E+08, 3.060246055678868E+08, 1.602080563654497E+08,
2459608.500000000, A.D. 2022-Jan-29 00:00:00.0000, -2.060242506107446E+08, 2.994910114019990E+08, 1.596071109750811E+08,
2459615.500000000, A.D. 2022-Feb-05 00:00:00.0000, -2.136816508049980E+08, 2.927250848741202E+08, 1.588823416309519E+08,
2459622.500000000, A.D. 2022-Feb-12 00:00:00.0000, -2.211716759322914E+08, 2.857298481210877E+08, 1.580331001846547E+08,
2459629.500000000, A.D. 2022-Feb-19 00:00:00.0000, -2.284866859100530E+08, 2.785084960911390E+08, 1.570587864436756E+08,
2459636.500000000, A.D. 2022-Feb-26 00:00:00.0000, -2.356189696874267E+08, 2.710644050096409E+08, 1.559588510266411E+08,
2459643.500000000, A.D. 2022-Mar-05 00:00:00.0000, -2.425607445904798E+08, 2.634011412593390E+08, 1.547327984906394E+08,
2459650.500000000, A.D. 2022-Mar-12 00:00:00.0000, -2.493041561131935E+08, 2.555224706224890E+08, 1.533801907186067E+08,
2459657.500000000, A.D. 2022-Mar-19 00:00:00.0000, -2.558412781229578E+08, 2.474323679247101E+08, 1.519006505760601E+08,
2459664.500000000, A.D. 2022-Mar-26 00:00:00.0000, -2.621641135020006E+08, 2.391350270849878E+08, 1.502938658481978E+08,
2459671.500000000, A.D. 2022-Apr-02 00:00:00.0000, -2.682645952051431E+08, 2.306348715246788E+08, 1.485595934603730E+08,
2459678.500000000, A.D. 2022-Apr-09 00:00:00.0000, -2.741345875146025E+08, 2.219365649469995E+08, 1.466976639714483E+08,
2459685.500000000, A.D. 2022-Apr-16 00:00:00.0000, -2.797658871925020E+08, 2.130450231450816E+08, 1.447079863750599E+08,
2459692.500000000, A.D. 2022-Apr-23 00:00:00.0000, -2.851502258642575E+08, 2.039654279241664E+08, 1.425905534291500E+08,
2459699.500000000, A.D. 2022-Apr-30 00:00:00.0000, -2.902792755739514E+08, 1.947032408931931E+08, 1.403454475190666E+08,
2459706.500000000, A.D. 2022-May-07 00:00:00.0000, -2.951446545211642E+08, 1.852642151497907E+08, 1.379728466272259E+08,
2459713.500000000, A.D. 2022-May-14 00:00:00.0000, -2.997379316663678E+08, 1.756544078842996E+08, 1.354730305418444E+08,
2459720.500000000, A.D. 2022-May-21 00:00:00.0000, -3.040506323249604E+08, 1.658801946438572E+08, 1.328463875678822E+08,
2459727.500000000, A.D. 2022-May-28 00:00:00.0000, -3.080742453242920E+08, 1.559482842786166E+08, 1.300934217218656E+08,
2459734.500000000, A.D. 2022-Jun-04 00:00:00.0000, -3.118002315456506E+08, 1.458657342307250E+08, 1.272147603727469E+08,
2459741.500000000, A.D. 2022-Jun-11 00:00:00.0000, -3.152200338118854E+08, 1.356399661319929E+08, 1.242111623265596E+08,
2459748.500000000, A.D. 2022-Jun-18 00:00:00.0000, -3.183250881944839E+08, 1.252787816775961E+08, 1.210835263615184E+08,
2459755.500000000, A.D. 2022-Jun-25 00:00:00.0000, -3.211068368299228E+08, 1.147903786861411E+08, 1.178329002150161E+08,
2459762.500000000, A.D. 2022-Jul-02 00:00:00.0000, -3.235567422367246E+08, 1.041833672118384E+08, 1.144604900087003E+08,
2459769.500000000, A.D. 2022-Jul-09 00:00:00.0000, -3.256663028739070E+08, 9.346678580344307E+07, 1.109676700902650E+08,
2459776.500000000, A.D. 2022-Jul-16 00:00:00.0000, -3.274270701318122E+08, 8.265011889440572E+07, 1.073559933807316E+08,
2459783.500000000, A.D. 2022-Jul-23 00:00:00.0000, -3.288306690955490E+08, 7.174331528544763E+07, 1.036272024257604E+08,
2459790.500000000, A.D. 2022-Jul-30 00:00:00.0000, -3.298688231453919E+08, 6.075680423200133E+07, 9.978324085535862E+07,
2459797.500000000, A.D. 2022-Aug-06 00:00:00.0000, -3.305333789415911E+08, 4.970150963351136E+07, 9.582626495223701E+07,
2459804.500000000, A.D. 2022-Aug-13 00:00:00.0000, -3.308163327566081E+08, 3.858886490085699E+07, 9.175865559458314E+07,
2459811.500000000, A.D. 2022-Aug-20 00:00:00.0000, -3.307098598668939E+08, 2.743082779089962E+07, 8.758303063341407E+07,
2459818.500000000, A.D. 2022-Aug-27 00:00:00.0000, -3.302063470788044E+08, 1.623989425049692E+07, 8.330225758804606E+07,
2459825.500000000, A.D. 2022-Sep-03 00:00:00.0000, -3.292984282730533E+08, 5.029110902153157E+06, 7.891946656370404E+07,
2459832.500000000, A.D. 2022-Sep-10 00:00:00.0000, -3.279790229959590E+08, -6.187914093425129E+06, 7.443806330558099E+07,
2459839.500000000, A.D. 2022-Sep-17 00:00:00.0000, -3.262413781703773E+08, -1.739700212084965E+07, 6.986174229151341E+07,
2459846.500000000, A.D. 2022-Sep-24 00:00:00.0000, -3.240791129477242E+08, -2.858339754389266E+07, 6.519449974165983E+07,
2459853.500000000, A.D. 2022-Oct-01 00:00:00.0000, -3.214862665158572E+08, -3.973176389618407E+07, 6.044064639042066E+07,
2459860.500000000, A.D. 2022-Oct-08 00:00:00.0000, -3.184573484736872E+08, -5.082618271996341E+07, 5.560481987330551E+07,
2459867.500000000, A.D. 2022-Oct-15 00:00:00.0000, -3.149873926739367E+08, -6.185015429587854E+07, 5.069199673548841E+07,
2459874.500000000, A.D. 2022-Oct-22 00:00:00.0000, -3.110720166285481E+08, -7.278660242258391E+07, 4.570750392394036E+07,
2459881.500000000, A.D. 2022-Oct-29 00:00:00.0000, -3.067074838352272E+08, -8.361788634776412E+07, 4.065702910106529E+07,
2459888.500000000, A.D. 2022-Nov-05 00:00:00.0000, -3.018907667206864E+08, -9.432581764048465E+07, 3.554662957123807E+07,
2459895.500000000, A.D. 2022-Nov-12 00:00:00.0000, -2.966196118871279E+08, -1.048916812795855E+08, 3.038273984276398E+07,
2459902.500000000, A.D. 2022-Nov-19 00:00:00.0000, -2.908926080210350E+08, -1.152962624567947E+08, 2.517217752945025E+07,
2459909.500000000, A.D. 2022-Nov-26 00:00:00.0000, -2.847092557501677E+08, -1.255198800270536E+08, 1.992214722991166E+07,
2459916.500000000, A.D. 2022-Dec-03 00:00:00.0000, -2.780700387243623E+08, -1.355424271288773E+08, 1.464024204411110E+07,
2459923.500000000, A.D. 2022-Dec-10 00:00:00.0000, -2.709764951989923E+08, -1.453434194318139E+08, 9.334442385941841E+06,
2459930.500000000, A.D. 2022-Dec-17 00:00:00.0000, -2.634312893017431E+08, -1.549020514617846E+08, 4.013111741487950E+06,
2459937.500000000, A.D. 2022-Dec-24 00:00:00.0000, -2.554382809608618E+08, -1.641972614258111E+08, -1.315010988619350E+06,
2459944.500000000, A.D. 2022-Dec-31 00:00:00.0000, -2.470025931087719E+08, -1.732078046910584E+08, -6.640822924913935E+06,
2459951.500000000, A.D. 2023-Jan-07 00:00:00.0000, -2.381306748975463E+08, -1.819123351006548E+08, -1.195487267613525E+07,
2459958.500000000, A.D. 2023-Jan-14 00:00:00.0000, -2.288303616476324E+08, -1.902894936329932E+08, -1.724737990876473E+07,
2459965.500000000, A.D. 2023-Jan-21 00:00:00.0000, -2.191109308405065E+08, -1.983180074191214E+08, -2.250825947108760E+07,
2459972.500000000, A.D. 2023-Jan-28 00:00:00.0000, -2.089831490899462E+08, -2.059767989723484E+08, -2.772715062327042E+07,
2459979.500000000, A.D. 2023-Feb-04 00:00:00.0000, -1.984593088630791E+08, -2.132451020510677E+08, -3.289345123915900E+07,
2459986.500000000, A.D. 2023-Feb-11 00:00:00.0000, -1.875532552962970E+08, -2.201025835684586E+08, -3.799635688172488E+07,
2459993.500000000, A.D. 2023-Feb-18 00:00:00.0000, -1.762804017436427E+08, -2.265294713553088E+08, -4.302490476907580E+07,
2460000.500000000, A.D. 2023-Feb-25 00:00:00.0000, -1.646577324389878E+08, -2.325066866849642E+08, -4.796802251742998E+07,
2460007.500000000, A.D. 2023-Mar-04 00:00:00.0000, -1.527037909373798E+08, -2.380159800586022E+08, -5.281458140354131E+07,
2460014.500000000, A.D. 2023-Mar-11 00:00:00.0000, -1.404386532497990E+08, -2.430400685443381E+08, -5.755345376202469E+07,
2460021.500000000, A.D. 2023-Mar-18 00:00:00.0000, -1.278838847885659E+08, -2.475627728102454E+08, -6.217357401215807E+07,
2460028.500000000, A.D. 2023-Mar-25 00:00:00.0000, -1.150624803526305E+08, -2.515691518213568E+08, -6.666400269711351E+07,
2460035.500000000, A.D. 2023-Apr-01 00:00:00.0000, -1.019987864748774E+08, -2.550456326082530E+08, -7.101399278358248E+07,
2460042.500000000, A.D. 2023-Apr-08 00:00:00.0000, -8.871840684578560E+07, -2.579801316141763E+08, -7.521305719815350E+07,
2460049.500000000, A.D. 2023-Apr-15 00:00:00.0000, -7.524809362748142E+07, -2.603621664504590E+08, -7.925103651711978E+07,
2460056.500000000, A.D. 2023-Apr-22 00:00:00.0000, -6.161562371901789E+07, -2.621829589001001E+08, -8.311816619720040E+07,
2460063.500000000, A.D. 2023-Apr-29 00:00:00.0000, -4.784965850556794E+07, -2.634355248427348E+08, -8.680514234594607E+07,
2460070.500000000, A.D. 2023-May-06 00:00:00.0000, -3.397959050169294E+07, -2.641147474491519E+08, -9.030318464435524E+07,
2460077.500000000, A.D. 2023-May-13 00:00:00.0000, -2.003537986369504E+07, -2.642174329372416E+08, -9.360409534340386E+07,
2460084.500000000, A.D. 2023-May-20 00:00:00.0000, -6.047382837419967E+06, -2.637423481098877E+08, -9.670031338677891E+07,
2460091.500000000, A.D. 2023-May-27 00:00:00.0000, 7.953825509604976E+06, -2.626902388135358E+08, -9.958496275460114E+07,
2460098.500000000, A.D. 2023-Jun-03 00:00:00.0000, 2.193763161984145E+07, -2.610638288163286E+08, -1.022518942199039E+08,
2460105.500000000, A.D. 2023-Jun-10 00:00:00.0000, 3.587356407012124E+07, -2.588677990834760E+08, -1.046957198532242E+08,
2460112.500000000, A.D. 2023-Jun-17 00:00:00.0000, 4.973147177825609E+07, -2.561087479178635E+08, -1.069118397867587E+08,
2460119.500000000, A.D. 2023-Jun-24 00:00:00.0000, 6.348169738978197E+07, -2.527951327445264E+08, -1.088964609388603E+08,
2460126.500000000, A.D. 2023-Jul-01 00:00:00.0000, 7.709524353634641E+07, -2.489371939374872E+08, -1.106466075124659E+08,
2460133.500000000, A.D. 2023-Jul-08 00:00:00.0000, 9.054392796477522E+07, -2.445468614394144E+08, -1.121601230866171E+08,
2460140.500000000, A.D. 2023-Jul-15 00:00:00.0000, 1.038005242293842E+08, -2.396376488633208E+08, -1.134356646296893E+08,
$$EOE